0 XW-2D
1 40907U 15049J   23076.52544247  .00023120  00000-0  91807-3 0  9996
2 40907  97.4963  83.8248 0013695 113.6917  43.5646 15.25253057414490
0 XW-2C
1 40906U 15049H   23076.52486304  .00019513  00000-0  80913-3 0  9991
2 40906  97.4974  83.5069 0014318 119.4579 339.6218 15.23824994414429
0 XW-2A
1 40903U 15049E   23076.52191950  .00263512  00000-0  10997-2 0  9992
2 40903  97.1290 143.4017 0006501 180.2037 298.4014 15.84967475421909
0 ISS (ZARYA)
1 25544U 98067A   23076.46214245  .00020748  00000-0  38053-3 0  9999
2 25544  51.6407  62.9479 0006088 101.0634  39.9442 15.49228809387567
0 AO-91
1 43017U 17073E   23076.43961949  .00010731  00000-0  76410-3 0  9999
2 43017  97.6447 324.4203 0238715  12.3295 348.3622 14.84585622287561
0 FUNCUBE 1
1 39444U 13066AE  23076.42819944  .00005343  00000-0  60766-3 0  9992
2 39444  97.6614  43.8988 0052896 213.6450 146.1404 14.85620003502602
0 ES'HAIL 2
1 43700U 18090A   23076.36507799  .00000132  00000-0  00000+0 0  9991
2 43700   0.0174 147.9636 0001060 228.4697 315.4491  1.00273197 16014
0 OBJECT C
1 54684U 22167C   23076.34324803  .00019593  00000-0  11594-2 0  9999
2 54684  97.5450 214.7925 0013804 290.9448  98.8364 15.11397222 14793
0 DIWATA 2B
1 43678U 18084H   23076.31931937  .00003316  00000-0  32428-3 0  9998
2 43678  98.0045 218.5420 0010727 103.1996 257.0384 14.93020317238556
0 XW-3 (CAS 9)
1 50466U 21131B   23076.30748147  .00001168  00000-0  39469-3 0  9991
2 50466  98.5554 158.1401 0005297  66.9162 293.2583 14.38753552 64142
0 TEVEL 8
1 50989U 22002F   23076.30404417  .00029200  00000-0  13135-2 0  9996
2 50989  97.4451 144.1560 0009319 187.6391 237.4465 15.21022693 64777
0 CSS (TIANHE-1)
1 48274U 21035A   23076.27277459  .00039986  00000-0  43646-3 0  9998
2 48274  41.4757 356.5428 0001466 144.9502 353.5350 15.62591152107458
0 TEVEL 4
1 51063U 22002CH  23076.24475458  .00029133  00000-0  13118-2 0  9992
2 51063  97.4449 144.0634 0008942 188.8486 243.1881 15.20992282 64762
0 TEVEL 7
1 51062U 22002CG  23076.24140837  .00029307  00000-0  13182-2 0  9995
2 51062  97.4444 144.0696 0008990 188.5896 243.8787 15.21028649 64769
0 TEVEL 1
1 51013U 22002AF  23076.23265817  .00029168  00000-0  13114-2 0  9996
2 51013  97.4440 143.9933 0008895 188.5733 247.8723 15.21043945 64767
0 JAS 2
1 24278U 96046B   23076.20618111  .00000037  00000-0  76277-4 0  9999
2 24278  98.5219  67.3239 0349255 295.6009  60.9425 13.53138438312740
0 LAPAN A2
1 40931U 15052B   23076.20063271  .00001899  00000-0  17344-3 0  9998
2 40931   5.9979  23.1268 0012979  67.8228 292.3384 14.77101971403737
0 AO-92
1 43137U 18004AC  23076.16573078  .00032840  00000-0  84104-3 0  9993
2 43137  97.3365 154.7824 0007286 115.1325 245.0678 15.39300686288118
0 XW-2B
1 40911U 15049N   23076.16435462  .00022865  00000-0  91335-3 0  9990
2 40911  97.4946  83.9534 0013705 116.5162 308.9032 15.25056760414322
0 TEVEL 2
1 51069U 22002CP  23076.15704122  .00029178  00000-0  13106-2 0  9997
2 51069  97.4439 143.9378 0008955 189.4356 222.9571 15.21075550 64758
0 TEVEL 3
1 50988U 22002E   23076.15514852  .00029269  00000-0  13147-2 0  9991
2 50988  97.4445 143.9614 0008848 189.2285 223.0933 15.21075378 64759
0 XW-2F
1 40910U 15049M   23076.15208674  .00040296  00000-0  13010-2 0  9992
2 40910  97.4702  88.1395 0013485  93.4192 332.1476 15.31921591414774
0 LILACSAT 2
1 40908U 15049K   23076.15036331  .00009889  00000-0  48267-3 0  9994
2 40908  97.5264  79.5453 0015625 144.5019 280.0067 15.18381169413826
0 TEVEL 5
1 50998U 22002Q   23076.14568566  .00030161  00000-0  13279-2 0  9991
2 50998  97.4440 144.2396 0010362 185.2497 230.2919 15.21743305 64779
0 TEVEL 6
1 50999U 22002R   23076.14421104  .00030174  00000-0  13282-2 0  9996
2 50999  97.4438 144.2336 0010404 184.7268 230.1045 15.21749181 64775
0 JY1SAT
1 43803U 18099AX  23076.14075931  .00007986  00000-0  65169-3 0  9993
2 43803  97.5868 141.1153 0015939  70.7803 289.5144 14.99590957233897
0 XW-2E
1 40909U 15049L   23076.12734654  .00040477  00000-0  12836-2 0  9995
2 40909  97.4609  88.9022 0012419  92.1046 339.5086 15.32509293415011
0 AO-95
1 43770U 18099N   23076.12718152  .00008421  00000-0  70298-3 0  9997
2 43770  97.5850 140.1629 0015499  82.9494 277.3491 14.98705042233814
0 ZHUHAI-1 01
1 42761U 17034D   23076.02682064  .00014147  00000-0  74163-3 0  9992
2 42761  43.0173 265.8988 0011489 234.2468 266.9277 15.15573481317659
0 ZHUHAI-1 02
1 42759U 17034B   23076.00710367  .00013139  00000-0  69135-3 0  9998
2 42759  43.0171 267.4420 0011358 230.3554 265.5878 15.15491977317641
0 OSCAR 7
1  7530U 74089B   23075.93707961 -.00000014  00000-0  20148-3 0  9996
2  7530 101.9414  62.0134 0011923 239.5457 177.9173 12.53662313211858
0 NAYIF 1
1 42017U 17008BX  23075.92117197  .00088474  00000-0  13528-2 0  9996
2 42017  97.2264 144.9690 0001822 333.4896  26.6265 15.54087234339032
0 UVSQ-SAT
1 47438U 21006AB  23075.91236992  .00019903  00000-0  89183-3 0  9997
2 47438  97.3978 134.4916 0011139  53.0647 307.1607 15.21218859118601
0 BREEZE-KM R/B
1 44909U 19096E   23075.89033350  .00000039  00000-0  10810-3 0  9994
2 44909  82.5209  49.2646 0218339  42.9882 318.8049 12.79719116150355
0 EYESAT A
1 22825U 93061C   23075.86670885  .00000240  00000-0  11043-3 0  9991
2 22825  98.8544 117.2144 0008026 344.7769  15.3170 14.30265615537369
0 NEXUS
1 43937U 19003F   23075.79445513  .00048327  00000-0  10875-2 0  9991
2 43937  97.1012 104.7234 0013637 247.7845 112.1958 15.43058586231756
0 SAUDISAT 1C
1 27607U 02058C   23075.75330632  .00003395  00000-0  47806-3 0  9991
2 27607  64.5557 188.2478 0076272 242.9459 116.3847 14.76948955 88579
0 MT-CUBE-2
1 53106U 22080B   23075.13340333 -.00000003  00000-0  00000+0 0  9997
2 53106  70.1817 352.0525 0008319 207.8404 152.1811  6.42557089 15774
0 XW-4 (CAS-10)
1 54816U 21035C   23072.25043904  .02330371  77621-5  12756-2 0  9996
2 54816  41.5077   9.4914 0017840 162.4710 197.7314 16.18206266 13316
